{
    "links": {
        "self": "http://www.neowsapp.com/rest/v1/neo/3735451?api_key=iIulBulltgU6a56xZRHN4H3l9WmuAYTsLGpBGhQ2"
    },
    "id": "3735451",
    "neo_reference_id": "3735451",
    "name": "(2015 WO1)",
    "designation": "2015 WO1",
    "nasa_jpl_url": "http://ssd.jpl.nasa.gov/sbdb.cgi?sstr=3735451",
    "absolute_magnitude_h": 23.0,
    "estimated_diameter": {
        "kilometers": {
            "estimated_diameter_min": 0.0667659413,
            "estimated_diameter_max": 0.1492931834
        },
        "meters": {
            "estimated_diameter_min": 66.7659413495,
            "estimated_diameter_max": 149.2931834393
        },
        "miles": {
            "estimated_diameter_min": 0.0414864197,
            "estimated_diameter_max": 0.0927664547
        },
        "feet": {
            "estimated_diameter_min": 219.0483710172,
            "estimated_diameter_max": 489.807047955
        }
    },
    "is_potentially_hazardous_asteroid": false,
    "close_approach_data": [
        {
            "close_approach_date": "2015-10-24",
            "close_approach_date_full": "2015-Oct-24 20:05",
            "epoch_date_close_approach": 1445717100000,
            "relative_velocity": {
                "kilometers_per_second": "12.2707589661",
                "kilometers_per_hour": "44174.7322778059",
                "miles_per_hour": "27448.4607311734"
            },
            "miss_distance": {
                "astronomical": "0.159724026",
                "lunar": "62.132646114",
                "kilometers": "23894374.07742462",
                "miles": "14847275.574394956"
            },
            "orbiting_body": "Earth"
        },
        {
            "close_approach_date": "2038-11-01",
            "close_approach_date_full": "2038-Nov-01 21:54",
            "epoch_date_close_approach": 2172261240000,
            "relative_velocity": {
                "kilometers_per_second": "17.0902851658",
                "kilometers_per_hour": "61525.0265969628",
                "miles_per_hour": "38229.2588874295"
            },
            "miss_distance": {
                "astronomical": "0.1435685277",
                "lunar": "55.8481572753",
                "kilometers": "21477545.942955999",
                "miles": "13345528.2085868262"
            },
            "orbiting_body": "Earth"
        },
        {
            "close_approach_date": "2040-04-28",
            "close_approach_date_full": "2040-Apr-28 18:27",
            "epoch_date_close_approach": 2219250420000,
            "relative_velocity": {
                "kilometers_per_second": "27.2017492548",
                "kilometers_per_hour": "97926.2973173099",
                "miles_per_hour": "60847.5929080807"
            },
            "miss_distance": {
                "astronomical": "0.4372451366",
                "lunar": "170.0883581374",
                "kilometers": "65410941.103219042",
                "miles": "40644474.0922330996"
            },
            "orbiting_body": "Earth"
        }
    ],
    "orbital_data": {
        "orbit_id": "6",
        "orbit_determination_date": "2017-04-06 08:30:30",
        "first_observation_date": "2015-11-18",
        "last_observation_date": "2015-12-02",
        "data_arc_in_days": 14,
        "observations_used": 19,
        "orbit_uncertainty": "8",
        "minimum_orbit_intersection": ".00915345",
        "jupiter_tisserand_invariant": "4.459",
        "epoch_osculation": "2457345.5",
        "eccentricity": ".4754832023028688",
        "semi_major_axis": "1.4649311344627",
        "inclination": "13.75794137489472",
        "ascending_node_longitude": "62.92158195403467",
        "orbital_period": "647.625947581545",
        "perihelion_distance": ".768380987495201",
        "perihelion_argument": "252.8675129895643",
        "aphelion_distance": "2.161481281430199",
        "perihelion_time": "2457263.753048994427",
        "mean_anomaly": "45.44120332408512",
        "mean_motion": ".5558764304369862",
        "equinox": "J2000",
        "orbit_class": {
            "orbit_class_type": "APO",
            "orbit_class_description": "Near-Earth asteroid orbits which cross the Earth’s orbit similar to that of 1862 Apollo",
            "orbit_class_range": "a (semi-major axis) > 1.0 AU; q (perihelion) < 1.017 AU"
        }
    },
    "is_sentry_object": false
}